MALLIGYONG-1            
1 58400U 23179A   24146.82656767  .00008253  00000+0  35625-3 0  9994
2 58400  97.4063  34.0285 0008526 352.8023   7.3090 15.22740216 28328
